STARLINK-5125           
1 53994U 22125AG  26031.92245834 -.00001482  00000+0 -75058-4 0  9996
2 53994  53.2180  19.0515 0001333 101.4765 258.6377 15.08843420183911
STARLINK-5097           
1 53995U 22125AH  26031.26744628 -.00002373  00000+0 -13114-3 0  9993
2 53995  53.2191  22.0743 0001388  86.9262 273.1889 15.08811794183807
STARLINK-5131           
1 53996U 22125AJ  26031.65381090 -.00000239  00000+0  30864-5 0  9998
2 53996  53.2214  20.2203 0001571  88.3193 271.7980 15.08838286183876
STARLINK-5130           
1 53997U 22125AK  26031.95285833  .00000364  00000+0  40987-4 0  9994
2 53997  53.2183   9.2651 0001324  93.4775 266.6368 15.08834286184055
STARLINK-5128           
1 53998U 22125AL  26031.38150741 -.00002071  00000+0 -11212-3 0  9998
2 53998  53.2188  21.3644 0001270  92.2185 267.8953 15.08817338183837
STARLINK-5079           
1 53999U 22125AM  26031.92614310  .00000969  00000+0  78952-4 0  9993
2 53999  53.2193  19.0756 0001496  94.6239 265.4924 15.08833218183914
STARLINK-5088           
1 54000U 22125AN  26031.94917293 -.00000427  00000+0 -87517-5 0  9994
2 54000  53.2183   9.2414 0001627  84.6269 275.4909 15.08840472184057
STARLINK-5109           
1 54002U 22125AQ  26031.63999479  .00001107  00000+0  87648-4 0  9996
2 54002  53.2180  10.1790 0001288  91.7415 268.3724 15.08841369184017
STARLINK-5114           
1 54003U 22125AR  26031.38516155  .00000628  00000+0  57521-4 0  9999
2 54003  53.2188  21.3865 0001363  99.2115 260.9031 15.08837034183839
STARLINK-5129           
1 54004U 22125AS  26031.37410906  .00000318  00000+0  38100-4 0  9994
2 54004  53.2186  21.3207 0001473  88.9497 271.1664 15.08839979183834
STARLINK-5135           
1 54005U 22125AT  26031.37779286  .00000452  00000+0  46476-4 0  9998
2 54005  53.2182  21.3401 0001272  98.6756 261.4380 15.08838033183837
STARLINK-5096           
1 54006U 22125AU  26031.95921723  .00002166  00000+0  15413-3 0  9998
2 54006  53.2174  18.5822 0001393  86.1449 273.9703 15.08843205183912
STARLINK-5132           
1 54007U 22125AV  26031.37042564  .00000205  00000+0  30952-4 0  9990
2 54007  53.2186  21.3012 0001479  91.3816 268.7346 15.08839505183834
STARLINK-5145           
1 54008U 22125AW  26031.23519066 -.00000659  00000+0 -23300-4 0  9996
2 54008  53.2181  11.9021 0001353  92.1222 267.9925 15.08832674183953
STARLINK-5099           
1 54009U 22125AX  26031.23425817  .00001036  00000+0  83135-4 0  9997
2 54009  53.2199  21.8702 0001399  92.4706 267.6446 15.08843803183815
STARLINK-5127           
1 54010U 22125AY  26031.95645900  .00000466  00000+0  47363-4 0  9994
2 54010  53.2195   8.5942 0001451  85.2701 274.8456 15.08833926184069
