[{"OBJECT_NAME":"STARLINK-5125","OBJECT_ID":"2022-125AG","EPOCH":"2026-01-31T22:08:20.400576","MEAN_MOTION":15.0884342,"ECCENTRICITY":0.00013334,"INCLINATION":53.218,"RA_OF_ASC_NODE":19.0515,"ARG_OF_PERICENTER":101.4765,"MEAN_ANOMALY":258.6377,"EPHEMERIS_TYPE":0,"CLASSIFICATION_TYPE":"U","NORAD_CAT_ID":53994,"ELEMENT_SET_NO":999,"REV_AT_EPOCH":18391,"BSTAR":-7.5058176e-5,"MEAN_MOTION_DOT":-1.482e-5,"MEAN_MOTION_DDOT":0},{"OBJECT_NAME":"STARLINK-5097","OBJECT_ID":"2022-125AH","EPOCH":"2026-01-31T06:25:07.358592","MEAN_MOTION":15.08811794,"ECCENTRICITY":0.0001388,"INCLINATION":53.2191,"RA_OF_ASC_NODE":22.0743,"ARG_OF_PERICENTER":86.9262,"MEAN_ANOMALY":273.1889,"EPHEMERIS_TYPE":0,"CLASSIFICATION_TYPE":"U","NORAD_CAT_ID":53995,"ELEMENT_SET_NO":999,"REV_AT_EPOCH":18380,"BSTAR":-0.00013114,"MEAN_MOTION_DOT":-2.373e-5,"MEAN_MOTION_DDOT":0},{"OBJECT_NAME":"STARLINK-5131","OBJECT_ID":"2022-125AJ","EPOCH":"2026-01-31T15:41:29.261760","MEAN_MOTION":15.08838286,"ECCENTRICITY":0.00015716,"INCLINATION":53.2214,"RA_OF_ASC_NODE":20.2203,"ARG_OF_PERICENTER":88.3193,"MEAN_ANOMALY":271.798,"EPHEMERIS_TYPE":0,"CLASSIFICATION_TYPE":"U","NORAD_CAT_ID":53996,"ELEMENT_SET_NO":999,"REV_AT_EPOCH":18387,"BSTAR":3.086358e-6,"MEAN_MOTION_DOT":-2.39e-6,"MEAN_MOTION_DDOT":0},{"OBJECT_NAME":"STARLINK-5130","OBJECT_ID":"2022-125AK","EPOCH":"2026-01-31T22:52:06.959712","MEAN_MOTION":15.08834286,"ECCENTRICITY":0.00013242,"INCLINATION":53.2183,"RA_OF_ASC_NODE":9.2651,"ARG_OF_PERICENTER":93.4775,"MEAN_ANOMALY":266.6368,"EPHEMERIS_TYPE":0,"CLASSIFICATION_TYPE":"U","NORAD_CAT_ID":53997,"ELEMENT_SET_NO":999,"REV_AT_EPOCH":18405,"BSTAR":4.0987018e-5,"MEAN_MOTION_DOT":3.64e-6,"MEAN_MOTION_DDOT":0},{"OBJECT_NAME":"STARLINK-5128","OBJECT_ID":"2022-125AL","EPOCH":"2026-01-31T09:09:22.240224","MEAN_MOTION":15.08817338,"ECCENTRICITY":0.00012701,"INCLINATION":53.2188,"RA_OF_ASC_NODE":21.3644,"ARG_OF_PERICENTER":92.2185,"MEAN_ANOMALY":267.8953,"EPHEMERIS_TYPE":0,"CLASSIFICATION_TYPE":"U","NORAD_CAT_ID":53998,"ELEMENT_SET_NO":999,"REV_AT_EPOCH":18383,"BSTAR":-0.00011211756,"MEAN_MOTION_DOT":-2.071e-5,"MEAN_MOTION_DDOT":0},{"OBJECT_NAME":"STARLINK-5079","OBJECT_ID":"2022-125AM","EPOCH":"2026-01-31T22:13:38.763840","MEAN_MOTION":15.08833218,"ECCENTRICITY":0.00014962,"INCLINATION":53.2193,"RA_OF_ASC_NODE":19.0756,"ARG_OF_PERICENTER":94.6239,"MEAN_ANOMALY":265.4924,"EPHEMERIS_TYPE":0,"CLASSIFICATION_TYPE":"U","NORAD_CAT_ID":53999,"ELEMENT_SET_NO":999,"REV_AT_EPOCH":18391,"BSTAR":7.8952254e-5,"MEAN_MOTION_DOT":9.69e-6,"MEAN_MOTION_DDOT":0},{"OBJECT_NAME":"STARLINK-5088","OBJECT_ID":"2022-125AN","EPOCH":"2026-01-31T22:46:48.541152","MEAN_MOTION":15.08840472,"ECCENTRICITY":0.00016278,"INCLINATION":53.2183,"RA_OF_ASC_NODE":9.2414,"ARG_OF_PERICENTER":84.6269,"MEAN_ANOMALY":275.4909,"EPHEMERIS_TYPE":0,"CLASSIFICATION_TYPE":"U","NORAD_CAT_ID":54000,"ELEMENT_SET_NO":999,"REV_AT_EPOCH":18405,"BSTAR":-8.751663e-6,"MEAN_MOTION_DOT":-4.27e-6,"MEAN_MOTION_DDOT":0},{"OBJECT_NAME":"STARLINK-5109","OBJECT_ID":"2022-125AQ","EPOCH":"2026-01-31T15:21:35.549856","MEAN_MOTION":15.08841369,"ECCENTRICITY":0.00012884,"INCLINATION":53.218,"RA_OF_ASC_NODE":10.179,"ARG_OF_PERICENTER":91.7415,"MEAN_ANOMALY":268.3724,"EPHEMERIS_TYPE":0,"CLASSIFICATION_TYPE":"U","NORAD_CAT_ID":54002,"ELEMENT_SET_NO":999,"REV_AT_EPOCH":18401,"BSTAR":8.764782e-5,"MEAN_MOTION_DOT":1.107e-5,"MEAN_MOTION_DDOT":0},{"OBJECT_NAME":"STARLINK-5114","OBJECT_ID":"2022-125AR","EPOCH":"2026-01-31T09:14:37.957920","MEAN_MOTION":15.08837034,"ECCENTRICITY":0.00013634,"INCLINATION":53.2188,"RA_OF_ASC_NODE":21.3865,"ARG_OF_PERICENTER":99.2115,"MEAN_ANOMALY":260.9031,"EPHEMERIS_TYPE":0,"CLASSIFICATION_TYPE":"U","NORAD_CAT_ID":54003,"ELEMENT_SET_NO":999,"REV_AT_EPOCH":18383,"BSTAR":5.7521342e-5,"MEAN_MOTION_DOT":6.28e-6,"MEAN_MOTION_DDOT":0},{"OBJECT_NAME":"STARLINK-5129","OBJECT_ID":"2022-125AS","EPOCH":"2026-01-31T08:58:43.022784","MEAN_MOTION":15.08839979,"ECCENTRICITY":0.00014737,"INCLINATION":53.2186,"RA_OF_ASC_NODE":21.3207,"ARG_OF_PERICENTER":88.9497,"MEAN_ANOMALY":271.1664,"EPHEMERIS_TYPE":0,"CLASSIFICATION_TYPE":"U","NORAD_CAT_ID":54004,"ELEMENT_SET_NO":999,"REV_AT_EPOCH":18383,"BSTAR":3.8099732e-5,"MEAN_MOTION_DOT":3.18e-6,"MEAN_MOTION_DDOT":0},{"OBJECT_NAME":"STARLINK-5135","OBJECT_ID":"2022-125AT","EPOCH":"2026-01-31T09:04:01.303104","MEAN_MOTION":15.08838033,"ECCENTRICITY":0.00012725,"INCLINATION":53.2182,"RA_OF_ASC_NODE":21.3401,"ARG_OF_PERICENTER":98.6756,"MEAN_ANOMALY":261.438,"EPHEMERIS_TYPE":0,"CLASSIFICATION_TYPE":"U","NORAD_CAT_ID":54005,"ELEMENT_SET_NO":999,"REV_AT_EPOCH":18383,"BSTAR":4.6476034e-5,"MEAN_MOTION_DOT":4.52e-6,"MEAN_MOTION_DDOT":0},{"OBJECT_NAME":"STARLINK-5096","OBJECT_ID":"2022-125AU","EPOCH":"2026-01-31T23:01:16.368672","MEAN_MOTION":15.08843205,"ECCENTRICITY":0.00013934,"INCLINATION":53.2174,"RA_OF_ASC_NODE":18.5822,"ARG_OF_PERICENTER":86.1449,"MEAN_ANOMALY":273.9703,"EPHEMERIS_TYPE":0,"CLASSIFICATION_TYPE":"U","NORAD_CAT_ID":54006,"ELEMENT_SET_NO":999,"REV_AT_EPOCH":18391,"BSTAR":0.00015413017,"MEAN_MOTION_DOT":2.166e-5,"MEAN_MOTION_DDOT":0},{"OBJECT_NAME":"STARLINK-5132","OBJECT_ID":"2022-125AV","EPOCH":"2026-01-31T08:53:24.775296","MEAN_MOTION":15.08839505,"ECCENTRICITY":0.00014799,"INCLINATION":53.2186,"RA_OF_ASC_NODE":21.3012,"ARG_OF_PERICENTER":91.3816,"MEAN_ANOMALY":268.7346,"EPHEMERIS_TYPE":0,"CLASSIFICATION_TYPE":"U","NORAD_CAT_ID":54007,"ELEMENT_SET_NO":999,"REV_AT_EPOCH":18383,"BSTAR":3.0952476e-5,"MEAN_MOTION_DOT":2.05e-6,"MEAN_MOTION_DDOT":0},{"OBJECT_NAME":"STARLINK-5145","OBJECT_ID":"2022-125AW","EPOCH":"2026-01-31T05:38:40.473024","MEAN_MOTION":15.08832674,"ECCENTRICITY":0.0001353,"INCLINATION":53.2181,"RA_OF_ASC_NODE":11.9021,"ARG_OF_PERICENTER":92.1222,"MEAN_ANOMALY":267.9925,"EPHEMERIS_TYPE":0,"CLASSIFICATION_TYPE":"U","NORAD_CAT_ID":54008,"ELEMENT_SET_NO":999,"REV_AT_EPOCH":18395,"BSTAR":-2.33e-5,"MEAN_MOTION_DOT":-6.59e-6,"MEAN_MOTION_DDOT":0},{"OBJECT_NAME":"STARLINK-5099","OBJECT_ID":"2022-125AX","EPOCH":"2026-01-31T05:37:19.905888","MEAN_MOTION":15.08843803,"ECCENTRICITY":0.0001399,"INCLINATION":53.2199,"RA_OF_ASC_NODE":21.8702,"ARG_OF_PERICENTER":92.4706,"MEAN_ANOMALY":267.6446,"EPHEMERIS_TYPE":0,"CLASSIFICATION_TYPE":"U","NORAD_CAT_ID":54009,"ELEMENT_SET_NO":999,"REV_AT_EPOCH":18381,"BSTAR":8.3135e-5,"MEAN_MOTION_DOT":1.036e-5,"MEAN_MOTION_DDOT":0},{"OBJECT_NAME":"STARLINK-5127","OBJECT_ID":"2022-125AY","EPOCH":"2026-01-31T22:57:18.057600","MEAN_MOTION":15.08833926,"ECCENTRICITY":0.00014516,"INCLINATION":53.2195,"RA_OF_ASC_NODE":8.5942,"ARG_OF_PERICENTER":85.2701,"MEAN_ANOMALY":274.8456,"EPHEMERIS_TYPE":0,"CLASSIFICATION_TYPE":"U","NORAD_CAT_ID":54010,"ELEMENT_SET_NO":999,"REV_AT_EPOCH":18406,"BSTAR":4.7363107e-5,"MEAN_MOTION_DOT":4.66e-6,"MEAN_MOTION_DDOT":0}]
